{"type": "FeatureCollection", "features": [ {"type": "Feature", "properties": {"norad_id": 66502, "name": "STARLINK-35922", "group": "last-30-days", "lat": 29.802580426872105, "lon": -55.698575742295155, "alt_km": 387.39570222972, "timestamp": "2025-12-06T09:34:15.699112+00:00", "meta": {"OBJECT_NAME": "STARLINK-35922", "OBJECT_ID": "2025-263T", "EPOCH": "2025-12-05T22:00:03.000096", "MEAN_MOTION": 15.60901936, "ECCENTRICITY": 0.00016498, "INCLINATION": 42.9994, "RA_OF_ASC_NODE": 165.0894, "ARG_OF_PERICENTER": 267.4448, "MEAN_ANOMALY": 35.2759, "EPHEMERIS_TYPE": 0, "CLASSIFICATION_TYPE": "U", "NORAD_CAT_ID": 66502, "ELEMENT_SET_NO": 999, "REV_AT_EPOCH": 453, "BSTAR": -0.026178548, "MEAN_MOTION_DOT": -0.01979991, "MEAN_MOTION_DDOT": 0}, "tle": {"line1": "1 66502U 25263T   25339.91670139 -.01979991  00000+0 -26179-1 0  9997", "line2": "2 66502  42.9994 165.0894 0001649 267.4448  35.2759 15.60901936  4539"}}, "geometry": {"type": "Point", "coordinates": [-55.698575742295155, 29.802580426872105]}}, {"type": "Feature", "properties": {"norad_id": 66503, "name": "STARLINK-35917", "group": "last-30-days", "lat": 27.68907132365904, "lon": -52.054715181247445, "alt_km": 387.7426217701177, "timestamp": "2025-12-06T09:34:15.699122+00:00", "meta": {"OBJECT_NAME": "STARLINK-35917", "OBJECT_ID": "2025-263U", "EPOCH": "2025-12-05T22:00:03.000096", "MEAN_MOTION": 15.60897792, "ECCENTRICITY": 0.00016826, "INCLINATION": 42.9995, "RA_OF_ASC_NODE": 165.0799, "ARG_OF_PERICENTER": 270.9319, "MEAN_ANOMALY": 35.6214, "EPHEMERIS_TYPE": 0, "CLASSIFICATION_TYPE": "U", "NORAD_CAT_ID": 66503, "ELEMENT_SET_NO": 999, "REV_AT_EPOCH": 453, "BSTAR": -0.026066605, "MEAN_MOTION_DOT": -0.019723, "MEAN_MOTION_DDOT": 0}, "tle": {"line1": "1 66503U 25263U   25339.91670139 -.01972300  00000+0 -26067-1 0  9991", "line2": "2 66503  42.9995 165.0799 0001682 270.9319  35.6214 15.60897792  4532"}}, "geometry": {"type": "Point", "coordinates": [-52.054715181247445, 27.68907132365904]}}, {"type": "Feature", "properties": {"norad_id": 66504, "name": "STARLINK-35916", "group": "last-30-days", "lat": 39.66520723061314, "lon": -79.67780838649703, "alt_km": 432.64799675978156, "timestamp": "2025-12-06T09:34:15.699134+00:00", "meta": {"OBJECT_NAME": "STARLINK-35916", "OBJECT_ID": "2025-263V", "EPOCH": "2025-12-05T22:00:03.000096", "MEAN_MOTION": 15.4482183, "ECCENTRICITY": 0.00014137, "INCLINATION": 43.0002, "RA_OF_ASC_NODE": 165.965, "ARG_OF_PERICENTER": 262.0895, "MEAN_ANOMALY": 45.9684, "EPHEMERIS_TYPE": 0, "CLASSIFICATION_TYPE": "U", "NORAD_CAT_ID": 66504, "ELEMENT_SET_NO": 999, "REV_AT_EPOCH": 453, "BSTAR": -0.045718178, "MEAN_MOTION_DOT": -0.01961087, "MEAN_MOTION_DDOT": 0}, "tle": {"line1": "1 66504U 25263V   25339.91670139 -.01961087  00000+0 -45718-1 0  9996", "line2": "2 66504  43.0002 165.9650 0001413 262.0895  45.9684 15.44821830  4539"}}, "geometry": {"type": "Point", "coordinates": [-79.67780838649703, 39.66520723061314]}}, {"type": "Feature", "properties": {"norad_id": 66505, "name": "STARLINK-34766", "group": "last-30-days", "lat": 31.81164034966495, "lon": -59.49646842844936, "alt_km": 387.1725093502946, "timestamp": "2025-12-06T09:34:15.699146+00:00", "meta": {"OBJECT_NAME": "STARLINK-34766", "OBJECT_ID": "2025-263W", "EPOCH": "2025-12-05T22:00:03.000096", "MEAN_MOTION": 15.60898494, "ECCENTRICITY": 0.00016759, "INCLINATION": 42.9994, "RA_OF_ASC_NODE": 165.0989, "ARG_OF_PERICENTER": 269.0766, "MEAN_ANOMALY": 29.8114, "EPHEMERIS_TYPE": 0, "CLASSIFICATION_TYPE": "U", "NORAD_CAT_ID": 66505, "ELEMENT_SET_NO": 999, "REV_AT_EPOCH": 453, "BSTAR": -0.026127911, "MEAN_MOTION_DOT": -0.01976415, "MEAN_MOTION_DDOT": 0}, "tle": {"line1": "1 66505U 25263W   25339.91670139 -.01976415  00000+0 -26128-1 0  9992", "line2": "2 66505  42.9994 165.0989 0001675 269.0766  29.8114 15.60898494  4535"}}, "geometry": {"type": "Point", "coordinates": [-59.49646842844936, 31.81164034966495]}}, {"type": "Feature", "properties": {"norad_id": 66506, "name": "STARLINK-34765", "group": "last-30-days", "lat": 30.82091948232169, "lon": -57.57611212423931, "alt_km": 387.2934533722273, "timestamp": "2025-12-06T09:34:15.699156+00:00", "meta": {"OBJECT_NAME": "STARLINK-34765", "OBJECT_ID": "2025-263X", "EPOCH": "2025-12-05T22:00:03.000096", "MEAN_MOTION": 15.60897398, "ECCENTRICITY": 0.00016284, "INCLINATION": 42.9996, "RA_OF_ASC_NODE": 165.0951, "ARG_OF_PERICENTER": 269.9479, "MEAN_ANOMALY": 30.8583, "EPHEMERIS_TYPE": 0, "CLASSIFICATION_TYPE": "U", "NORAD_CAT_ID": 66506, "ELEMENT_SET_NO": 999, "REV_AT_EPOCH": 453, "BSTAR": -0.026117542, "MEAN_MOTION_DOT": -0.01975616, "MEAN_MOTION_DDOT": 0}, "tle": {"line1": "1 66506U 25263X   25339.91670139 -.01975616  00000+0 -26118-1 0  9994", "line2": "2 66506  42.9996 165.0951 0001628 269.9479  30.8583 15.60897398  4539"}}, "geometry": {"type": "Point", "coordinates": [-57.57611212423931, 30.82091948232169]}}, {"type": "Feature", "properties": {"norad_id": 66507, "name": "STARLINK-34767", "group": "last-30-days", "lat": 28.757591856235454, "lon": -53.85788909375008, "alt_km": 387.51460841592507, "timestamp": "2025-12-06T09:34:15.699166+00:00", "meta": {"OBJECT_NAME": "STARLINK-34767", "OBJECT_ID": "2025-263Y", "EPOCH": "2025-12-05T22:00:03.000096", "MEAN_MOTION": 15.60903207, "ECCENTRICITY": 0.00016025, "INCLINATION": 42.9994, "RA_OF_ASC_NODE": 165.0841, "ARG_OF_PERICENTER": 267.5693, "MEAN_ANOMALY": 37.0688, "EPHEMERIS_TYPE": 0, "CLASSIFICATION_TYPE": "U", "NORAD_CAT_ID": 66507, "ELEMENT_SET_NO": 999, "REV_AT_EPOCH": 453, "BSTAR": -0.026208125, "MEAN_MOTION_DOT": -0.01982004, "MEAN_MOTION_DDOT": 0}, "tle": {"line1": "1 66507U 25263Y   25339.91670139 -.01982004  00000+0 -26208-1 0  9994", "line2": "2 66507  42.9994 165.0841 0001602 267.5693  37.0688 15.60903207  4532"}}, "geometry": {"type": "Point", "coordinates": [-53.85788909375008, 28.757591856235454]}}, {"type": "Feature", "properties": {"norad_id": 66508, "name": "STARLINK-35608", "group": "last-30-days", "lat": 25.483449970720454, "lon": -48.55297492056008, "alt_km": 387.9861704186078, "timestamp": "2025-12-06T09:34:15.699176+00:00", "meta": {"OBJECT_NAME": "STARLINK-35608", "OBJECT_ID": "2025-263Z", "EPOCH": "2025-12-05T22:00:03.000096", "MEAN_MOTION": 15.6089527, "ECCENTRICITY": 0.00016783, "INCLINATION": 42.9993, "RA_OF_ASC_NODE": 165.0704, "ARG_OF_PERICENTER": 268.7735, "MEAN_ANOMALY": 41.6172, "EPHEMERIS_TYPE": 0, "CLASSIFICATION_TYPE": "U", "NORAD_CAT_ID": 66508, "ELEMENT_SET_NO": 999, "REV_AT_EPOCH": 453, "BSTAR": -0.026043074, "MEAN_MOTION_DOT": -0.01970563, "MEAN_MOTION_DDOT": 0}, "tle": {"line1": "1 66508U 25263Z   25339.91670139 -.01970563  00000+0 -26043-1 0  9999", "line2": "2 66508  42.9993 165.0704 0001678 268.7735  41.6172 15.60895270  4532"}}, "geometry": {"type": "Point", "coordinates": [-48.55297492056008, 25.483449970720454]}}, {"type": "Feature", "properties": {"norad_id": 66509, "name": "STARLINK-35598", "group": "last-30-days", "lat": 20.84225824308842, "lon": -41.92554492902613, "alt_km": 388.5809620746022, "timestamp": "2025-12-06T09:34:15.699186+00:00", "meta": {"OBJECT_NAME": "STARLINK-35598", "OBJECT_ID": "2025-263AA", "EPOCH": "2025-12-05T22:00:03.000096", "MEAN_MOTION": 15.60904495, "ECCENTRICITY": 0.00017192, "INCLINATION": 42.9994, "RA_OF_ASC_NODE": 165.049, "ARG_OF_PERICENTER": 267.7138, "MEAN_ANOMALY": 50.3404, "EPHEMERIS_TYPE": 0, "CLASSIFICATION_TYPE": "U", "NORAD_CAT_ID": 66509, "ELEMENT_SET_NO": 999, "REV_AT_EPOCH": 453, "BSTAR": -0.02619677, "MEAN_MOTION_DOT": -0.01981426, "MEAN_MOTION_DDOT": 0}, "tle": {"line1": "1 66509U 25263AA  25339.91670139 -.01981426  00000+0 -26197-1 0  9990", "line2": "2 66509  42.9994 165.0490 0001719 267.7138  50.3404 15.60904495  4533"}}, "geometry": {"type": "Point", "coordinates": [-41.92554492902613, 20.84225824308842]}}, {"type": "Feature", "properties": {"norad_id": 66510, "name": "STARLINK-35600", "group": "last-30-days", "lat": 24.34880596411195, "lon": -46.851458718365016, "alt_km": 388.0876876252669, "timestamp": "2025-12-06T09:34:15.699198+00:00", "meta": {"OBJECT_NAME": "STARLINK-35600", "OBJECT_ID": "2025-263AB", "EPOCH": "2025-12-05T22:00:03.000096", "MEAN_MOTION": 15.60901712, "ECCENTRICITY": 0.0001579, "INCLINATION": 42.9992, "RA_OF_ASC_NODE": 165.064, "ARG_OF_PERICENTER": 268.1567, "MEAN_ANOMALY": 44.1498, "EPHEMERIS_TYPE": 0, "CLASSIFICATION_TYPE": "U", "NORAD_CAT_ID": 66510, "ELEMENT_SET_NO": 999, "REV_AT_EPOCH": 453, "BSTAR": -0.026168825, "MEAN_MOTION_DOT": -0.01979278, "MEAN_MOTION_DDOT": 0}, "tle": {"line1": "1 66510U 25263AB  25339.91670139 -.01979278  00000+0 -26169-1 0  9993", "line2": "2 66510  42.9992 165.0640 0001579 268.1567  44.1498 15.60901712  4538"}}, "geometry": {"type": "Point", "coordinates": [-46.851458718365016, 24.34880596411195]}}, {"type": "Feature", "properties": {"norad_id": 66511, "name": "STARLINK-35444", "group": "last-30-days", "lat": 22.02779571827948, "lon": -43.538749695046526, "alt_km": 388.5160789047177, "timestamp": "2025-12-06T09:34:15.699208+00:00", "meta": {"OBJECT_NAME": "STARLINK-35444", "OBJECT_ID": "2025-263AC", "EPOCH": "2025-12-05T22:00:03.000096", "MEAN_MOTION": 15.60893094, "ECCENTRICITY": 0.0001705, "INCLINATION": 42.9995, "RA_OF_ASC_NODE": 165.055, "ARG_OF_PERICENTER": 272.1874, "MEAN_ANOMALY": 43.9549, "EPHEMERIS_TYPE": 0, "CLASSIFICATION_TYPE": "U", "NORAD_CAT_ID": 66511, "ELEMENT_SET_NO": 999, "REV_AT_EPOCH": 453, "BSTAR": -0.026004692, "MEAN_MOTION_DOT": -0.01967884, "MEAN_MOTION_DDOT": 0}, "tle": {"line1": "1 66511U 25263AC  25339.91670139 -.01967884  00000+0 -26005-1 0  9993", "line2": "2 66511  42.9995 165.0550 0001705 272.1874  43.9549 15.60893094  4536"}}, "geometry": {"type": "Point", "coordinates": [-43.538749695046526, 22.02779571827948]}}]}